[
    {
        "CCSDS_OMM_VERS": "3.0",
        "COMMENT": "GENERATED VIA SPACE-TRACK.ORG API",
        "CREATION_DATE": "2025-05-04T02:26:54",
        "ORIGINATOR": "18 SPCS",
        "OBJECT_NAME": "BEIDOU 3M24",
        "OBJECT_ID": "2019-061B",
        "CENTER_NAME": "EARTH",
        "REF_FRAME": "TEME",
        "TIME_SYSTEM": "UTC",
        "MEAN_ELEMENT_THEORY": "SGP4",
        "EPOCH": "2025-05-03T18:00:03.315168",
        "MEAN_MOTION": "1.86229266",
        "ECCENTRICITY": "0.00047250",
        "INCLINATION": "54.4100",
        "RA_OF_ASC_NODE": "196.5055",
        "ARG_OF_PERICENTER": "338.6131",
        "MEAN_ANOMALY": "71.0707",
        "EPHEMERIS_TYPE": "0",
        "CLASSIFICATION_TYPE": "U",
        "NORAD_CAT_ID": "44543",
        "ELEMENT_SET_NO": "999",
        "REV_AT_EPOCH": "3817",
        "BSTAR": "0.00000000000000",
        "MEAN_MOTION_DOT": "-0.00000020",
        "MEAN_MOTION_DDOT": "0.0000000000000",
        "SEMIMAJOR_AXIS": "27906.362",
        "PERIOD": "773.240",
        "APOAPSIS": "21541.413",
        "PERIAPSIS": "21515.041",
        "OBJECT_TYPE": "PAYLOAD",
        "RCS_SIZE": "LARGE",
        "COUNTRY_CODE": "PRC",
        "LAUNCH_DATE": "2019-09-22",
        "SITE": "XSC",
        "DECAY_DATE": null,
        "FILE": "4718307",
        "GP_ID": "286799904",
        "TLE_LINE0": "0 BEIDOU 3M24",
        "TLE_LINE1": "1 44543U 19061B   25123.75003837 -.00000020  00000-0  00000-0 0  9996",
        "TLE_LINE2": "2 44543  54.4100 196.5055 0004725 338.6131  71.0707  1.86229266 38173"
    }
]